{
  "type": "FeatureCollection",
  "name": "blocks_lod1_synthetic",
  "crs": {
    "type": "name",
    "properties": { "name": "urn:ogc:def:crs:EPSG::2154" }
  },
  "features": [
    {
      "type": "Feature",
      "properties": {
        "id": "B1",
        "height": 12.0,
        "roof": "flat",
        "use": "residential"
      },
      "geometry": {
        "type": "Polygon",
        "coordinates": [[[0, 0], [18, 0], [18, 10], [0, 10], [0, 0]]]
      }
    },
    {
      "type": "Feature",
      "properties": {
        "id": "B2",
        "height": 18.5,
        "roof": "flat",
        "use": "office"
      },
      "geometry": {
        "type": "Polygon",
        "coordinates": [[[22, 0], [40, 0], [40, 14], [22, 14], [22, 0]]]
      }
    },
    {
      "type": "Feature",
      "properties": {
        "id": "B3",
        "height": 9.0,
        "roof": "gable",
        "use": "residential"
      },
      "geometry": {
        "type": "Polygon",
        "coordinates": [[[5, 16], [25, 16], [25, 28], [5, 28], [5, 16]]]
      }
    },
    {
      "type": "Feature",
      "properties": {
        "id": "B4",
        "height": 24.0,
        "roof": "flat",
        "use": "mixed"
      },
      "geometry": {
        "type": "Polygon",
        "coordinates": [[[30, 18], [48, 18], [48, 32], [36, 32], [36, 26], [30, 26], [30, 18]]]
      }
    },
    {
      "type": "Feature",
      "properties": {
        "id": "B5",
        "height": 6.0,
        "roof": "flat",
        "use": "commercial"
      },
      "geometry": {
        "type": "Polygon",
        "coordinates": [[[50, 0], [62, 0], [62, 8], [50, 8], [50, 0]]]
      }
    }
  ]
}
